NORAD_CAT_ID,OBJECT_NAME,OBJECT_TYPE,EPOCH,MEAN_MOTION,ECCENTRICITY,INCLINATION,RA_OF_ASC_NODE,ARG_OF_PERICENTER,MEAN_ANOMALY,BSTAR,MEAN_MOTION_DOT,MEAN_MOTION_DDOT,TLE_LINE0,TLE_LINE1,TLE_LINE2,SEMIMAJOR_AXIS,PERIOD,APOGEE,PERIGEE,DECAYED
56810.0,STARLINK-6031,PAYLOAD,2023-10-06 12:00:00,15.12139882,0.0003323,70.0008,56.481,268.0441,90.842,-0.059314,-0.00946208,0.0,0 STARLINK-6031,1 56810U 23078AV  23279.50001157 -.00946208  00000-0 -59314-1 0  9996,2 56810  70.0008  56.4810 0003323 268.0441  90.8420 15.12139882 20349,6907.812,95.229,531.973,527.382,0.0
56810.0,STARLINK-6031,PAYLOAD,2023-10-06 14:00:01,15.11966781,0.0003239,70.0009,56.2668,270.6009,181.8344,-0.058985,-0.00937128,0.0,0 STARLINK-6031,1 56810U 23078AV  23279.58335648 -.00937128  00000-0 -58985-1 0  9993,2 56810  70.0009  56.2668 0003239 270.6009 181.8344 15.11966781  6226,6908.34,95.24,532.442,527.967,0.0
56810.0,STARLINK-6031,PAYLOAD,2023-10-06 22:00:01,15.11300215,0.0003224,70.0003,55.4099,273.8292,192.0382,-0.058666,-0.00916506,0.0,0 STARLINK-6031,1 56810U 23078AV  23279.91668981 -.00916506  00000-0 -58666-1 0  9992,2 56810  70.0003  55.4099 0003224 273.8292 192.0382 15.11300215  6288,6910.371,95.282,534.464,530.008,0.0
56810.0,STARLINK-6031,PAYLOAD,2023-10-07 14:00:01,15.10008859,0.0003196,70.0007,53.6919,272.4715,217.8325,-0.06264,-0.00942102,0.0,0 STARLINK-6031,1 56810U 23078AV  23280.58334491 -.00942102  00000-0 -62640-1 0  9991,2 56810  70.0007  53.6919 0003196 272.4715 217.8325 15.10008859  5994,6914.31,95.364,538.385,533.965,0.0
56810.0,STARLINK-6031,PAYLOAD,2023-10-07 20:00:01,15.09493311,0.0003353,70.0005,53.0502,276.3963,132.2963,-0.059903,-0.00892048,0.0,0 STARLINK-6031,1 56810U 23078AV  23280.83334491 -.00892048  00000-0 -59903-1 0  9990,2 56810  70.0005  53.0502 0003353 276.3963 132.2963 15.09493311 20542,6915.884,95.396,540.068,535.43,0.0
56810.0,STARLINK-6031,PAYLOAD,2023-10-07 22:00:00,15.09352087,0.0003155,70.0002,52.8365,276.166,225.2155,-0.062921,-0.0093027,0.0,0 STARLINK-6031,1 56810U 23078AV  23280.91667824 -.00930270  00000-0 -62921-1 0  9992,2 56810  70.0002  52.8365 0003155 276.1660 225.2155 15.09352087  5773,6916.316,95.405,540.363,535.998,0.0
56810.0,STARLINK-6031,PAYLOAD,2023-10-08 12:00:00,15.08225394,0.0003247,70.0007,51.3417,271.1532,157.7278,-0.066488,-0.00951357,0.0,0 STARLINK-6031,1 56810U 23078AV  23281.50001157 -.00951357  00000-0 -66488-1 0  9990,2 56810  70.0007  51.3417 0003247 271.1532 157.7278 15.08225394 20642,6919.76,95.476,543.871,539.378,0.0
56810.0,STARLINK-6031,PAYLOAD,2023-10-08 14:00:01,15.08049371,0.0003155,70.0006,51.1284,271.8161,249.3781,-0.065834,-0.00938492,0.0,0 STARLINK-6031,1 56810U 23078AV  23281.58334491 -.00938492  00000-0 -65834-1 0  9997,2 56810  70.0006  51.1284 0003155 271.8161 249.3781 15.08049371  5878,6920.298,95.488,544.346,539.98,0.0
56810.0,STARLINK-6031,PAYLOAD,2023-10-08 22:00:00,15.0739757,0.0003088,70.0002,50.2755,274.9845,254.9389,-0.066806,-0.00935757,0.0,0 STARLINK-6031,1 56810U 23078AV  23281.91667824 -.00935757  00000-0 -66806-1 0  9994,2 56810  70.0002  50.2755 0003088 274.9845 254.9389 15.07397570  5934,6922.293,95.529,546.295,542.02,0.0
56810.0,STARLINK-6031,PAYLOAD,2023-10-09 06:00:02,15.06708096,0.0003094,70.0004,49.4236,268.3019,269.6424,-0.063049,-0.00871522,0.0,0 STARLINK-6031,1 56810U 23078AV  23282.25002315 -.00871522  00000-0 -63049-1 0  9995,2 56810  70.0004  49.4236 0003094 268.3019 269.6424 15.06708096 20766,6924.404,95.573,548.412,544.127,0.0
56810.0,STARLINK-6031,PAYLOAD,2023-10-09 14:00:01,15.06089651,0.0003144,70.0006,48.5726,271.1702,273.8734,-0.06913,-0.00934613,0.0,0 STARLINK-6031,1 56810U 23078AV  23282.58334491 -.00934613  00000-0 -69130-1 0  9992,2 56810  70.0006  48.5726 0003144 271.1702 273.8734 15.06089651  5920,6926.3,95.612,550.343,545.987,0.0
56810.0,STARLINK-6031,PAYLOAD,2023-10-09 22:00:00,15.05443558,0.0003085,70.0004,47.7224,273.7811,277.6436,-0.070878,-0.00941118,0.0,0 STARLINK-6031,1 56810U 23078AV  23282.91667824 -.00941118  00000-0 -70878-1 0  9997,2 56810  70.0004  47.7224 0003085 273.7811 277.6436 15.05443558 20865,6928.281,95.653,552.284,548.009,0.0
56810.0,STARLINK-6031,PAYLOAD,2023-10-10 14:00:01,15.04129252,0.0003134,70.0008,46.0246,270.9088,290.9439,-0.072376,-0.00928646,0.0,0 STARLINK-6031,1 56810U 23078AV  23283.58334491 -.00928646  00000-0 -72376-1 0  9998,2 56810  70.0008  46.0246 0003134 270.9088 290.9439 15.04129252  5983,6932.317,95.736,556.354,552.009,0.0
56810.0,STARLINK-6031,PAYLOAD,2023-10-10 22:00:01,15.0348877,0.0003093,70.0006,45.1769,273.4473,292.4998,-0.075141,-0.00957208,0.0,0 STARLINK-6031,1 56810U 23078AV  23283.91668981 -.00957208  00000-0 -75141-1 0  9998,2 56810  70.0006  45.1769 0003093 273.4473 292.4998 15.03488770 21012,6934.285,95.777,558.295,554.006,0.0
56810.0,STARLINK-6031,PAYLOAD,2023-10-11 14:00:01,15.02167477,0.0003113,70.0011,43.4844,271.2936,300.3278,-0.075516,-0.0092022,0.0,0 STARLINK-6031,1 56810U 23078AV  23284.58334491 -.00920220  00000-0 -75516-1 0  9998,2 56810  70.0011  43.4844 0003113 271.2936 300.3278 15.02167477 21114,6938.351,95.861,562.376,558.056,0.0
56810.0,STARLINK-6031,PAYLOAD,2023-10-12 14:00:01,15.00201956,0.0003162,70.0015,40.952,272.1706,302.1799,-0.078065,-0.00904429,0.0,0 STARLINK-6031,1 56810U 23078AV  23285.58334491 -.00904429  00000-0 -78065-1 0  9994,2 56810  70.0015  40.9520 0003162 272.1706 302.1799 15.00201956 21263,6944.41,95.987,568.471,564.079,0.0
56810.0,STARLINK-6031,PAYLOAD,2023-10-12 22:00:01,14.99405158,0.0003335,70.0014,40.1095,274.9782,298.7908,-0.014978,-0.0017926,0.0,0 STARLINK-6031,1 56810U 23078AV  23285.91668981 -.00179260  00000-0 -14978-1 0  9995,2 56810  70.0014  40.1095 0003335 274.9782 298.7908 14.99405158 21312,6946.87,96.038,571.052,566.418,0.0
56810.0,STARLINK-6031,PAYLOAD,2023-10-13 06:00:02,14.99277512,0.0003406,70.0017,39.2677,269.6883,302.7752,0.0039197,0.0004817,0.0,0 STARLINK-6031,1 56810U 23078AV  23286.25002315  .00048170  00000-0  39197-2 0  9990,2 56810  70.0017  39.2677 0003406 269.6883 302.7752 14.99277512 21361,6947.264,96.046,571.496,566.763,0.0
56810.0,STARLINK-6031,PAYLOAD,2023-10-13 14:00:01,14.99297523,0.0003421,70.0018,38.4264,272.8892,298.1594,-0.00045868,-5.701e-05,0.0,0 STARLINK-6031,1 56810U 23078AV  23286.58334491 -.00005701  00000-0 -45868-3 0  9997,2 56810  70.0018  38.4264 0003421 272.8892 298.1594 14.99297523  5973,6947.203,96.045,571.444,566.691,0.0
56810.0,STARLINK-6031,PAYLOAD,2023-10-13 20:00:01,14.9930215,0.000338,70.0015,37.7951,274.7596,205.2811,0.0012637,0.00015404,0.0,0 STARLINK-6031,1 56810U 23078AV  23286.83334491  .00015404  00000-0  12637-2 0  9991,2 56810  70.0015  37.7951 0003380 274.7596 205.2811 14.99302150 21445,6947.188,96.045,571.401,566.705,0.0
56810.0,STARLINK-6031,PAYLOAD,2023-10-13 22:00:00,14.99323405,0.0003333,70.0016,37.5847,273.4075,296.2911,-0.0024562,-0.00030038,0.0,0 STARLINK-6031,1 56810U 23078AV  23286.91667824 -.00030038  00000-0 -24562-2 0  9991,2 56810  70.0016  37.5847 0003333 273.4075 296.2911 14.99323405  5915,6947.123,96.043,571.303,566.672,0.0
56810.0,STARLINK-6031,PAYLOAD,2023-10-14 04:00:00,14.99379347,0.0003199,70.0018,36.9534,269.8937,208.7918,-0.017357,-0.00206771,0.0,0 STARLINK-6031,1 56810U 23078AV  23287.16667824 -.00206771  00000-0 -17357-1 0  9991,2 56810  70.0018  36.9534 0003199 269.8937 208.7918 14.99379347 21491,6946.95,96.04,571.037,566.592,0.0
56810.0,STARLINK-6031,PAYLOAD,2023-10-14 14:00:01,14.99157872,0.0003119,70.002,35.9014,272.8454,294.199,-0.076863,-0.00869139,0.0,0 STARLINK-6031,1 56810U 23078AV  23287.58335648 -.00869139  00000-0 -76863-1 0  9993,2 56810  70.0020  35.9014 0003119 272.8454 294.1990 14.99157872 21560,6947.634,96.054,571.666,567.332,0.0
56810.0,STARLINK-6031,PAYLOAD,2023-10-14 20:00:01,14.98529653,0.0003273,70.0018,35.2705,274.6071,201.1089,-0.025544,-0.00293976,0.0,0 STARLINK-6031,1 56810U 23078AV  23287.83335648 -.00293976  00000-0 -25544-1 0  9991,2 56810  70.0018  35.2705 0003273 274.6071 201.1089 14.98529653 21592,6949.576,96.094,573.715,569.166,0.0
56810.0,STARLINK-6031,PAYLOAD,2023-10-14 22:00:00,14.98407688,0.0003238,70.0018,35.0605,273.544,291.5536,-0.012037,-0.00141151,0.0,0 STARLINK-6031,1 56810U 23078AV  23287.91667824 -.00141151  00000-0 -12037-1 0  9994,2 56810  70.0018  35.0605 0003238 273.5440 291.5536 14.98407688  5807,6949.953,96.102,574.068,569.567,0.0
56810.0,STARLINK-6031,PAYLOAD,2023-10-15 04:00:00,14.98292888,0.0003325,70.002,34.4302,268.4289,204.8237,0.0051044,0.0006129,0.0,0 STARLINK-6031,1 56810U 23078AV  23288.16667824  .00061290  00000-0  51044-2 0  9997,2 56810  70.0020  34.4302 0003325 268.4289 204.8237 14.98292888 21647,6950.308,96.109,574.484,569.862,0.0
56810.0,STARLINK-6031,PAYLOAD,2023-10-15 12:00:00,14.98328637,0.0003354,70.0023,33.5896,269.4639,201.2543,-0.001498,-0.00017921,0.0,0 STARLINK-6031,1 56810U 23078AV  23288.50001157 -.00017921  00000-0 -14980-2 0  9998,2 56810  70.0023  33.5896 0003354 269.4639 201.2543 14.98328637 21698,6950.197,96.107,574.393,569.731,0.0
56810.0,STARLINK-6031,PAYLOAD,2023-10-15 14:00:01,14.98314405,0.0003344,70.0021,33.3796,271.1161,288.9753,0.0007885,9.324e-05,0.0,0 STARLINK-6031,1 56810U 23078AV  23288.58334491  .00009324  00000-0  78850-3 0  9999,2 56810  70.0021  33.3796 0003344 271.1161 288.9753 14.98314405  5901,6950.241,96.108,574.43,569.782,0.0
56810.0,STARLINK-6031,PAYLOAD,2023-10-15 22:00:00,14.98346072,0.0003313,70.0019,32.5392,271.1563,286.3979,-0.0028718,-0.00034207,0.0,0 STARLINK-6031,1 56810U 23078AV  23288.91667824 -.00034207  00000-0 -28718-2 0  9992,2 56810  70.0019  32.5392 0003313 271.1563 286.3979 14.98346072  5955,6950.143,96.106,574.311,569.706,0.0
56810.0,STARLINK-6031,PAYLOAD,2023-10-16 04:00:00,14.98301522,0.0003374,70.002,31.909,266.5292,199.1533,0.0071346,0.00086027,0.0,0 STARLINK-6031,1 56810U 23078AV  23289.16667824  .00086027  00000-0  71346-2 0  9990,2 56810  70.0020  31.9090 0003374 266.5292 199.1533 14.98301522 21797,6950.281,96.109,574.491,569.801,0.0
